<?xml version="1.0" encoding="UTF-8"?>
<gpx version="1.1" creator="Groupe6">
  <wpt lat="6.165" lon="1.21">
    <name>Centre de lome</name>
    <sym>Star</sym>
    <type>CentreVille</type>
  </wpt>
  <wpt lat="6.2" lon="1.17">
    <name>Monument 1</name>
    <sym>Historic</sym>
    <type>Monument</type>
  </wpt>
  <wpt lat="6.2" lon="1.17">
    <name>Monument 2</name>
    <sym>Historic</sym>
    <type>Monument</type>
  </wpt>
  <wpt lat="6.13" lon="1.25">
    <name>Monument 3</name>
    <sym>Historic</sym>
    <type>Monument</type>
  </wpt>
  <wpt lat="6.13" lon="1.25">
    <name>Monument 4</name>
    <sym>Historic</sym>
    <type>Monument</type>
  </wpt>
</gpx>